NORAD_CAT_ID,OBJECT_NAME,OBJECT_TYPE,EPOCH,MEAN_MOTION,ECCENTRICITY,INCLINATION,RA_OF_ASC_NODE,ARG_OF_PERICENTER,MEAN_ANOMALY,BSTAR,MEAN_MOTION_DOT,MEAN_MOTION_DDOT,TLE_LINE0,TLE_LINE1,TLE_LINE2,SEMIMAJOR_AXIS,PERIOD,APOGEE,PERIGEE,DECAYED
52598.0,STARLINK-4019,PAYLOAD,2022-06-27 22:00:00,15.14865359,0.0001831,53.2175,228.0675,39.7072,230.6885,-0.048258,-0.00846154,0.0,0 STARLINK-4019,1 52598U 22052A   22178.91667824 -.00846154  00000-0 -48258-1 0  9991,2 52598  53.2175 228.0675 0001831  39.7072 230.6885 15.14865359  1308,6899.524,95.058,522.653,520.126,0.0
52598.0,STARLINK-4019,PAYLOAD,2022-06-28 06:00:00,15.14268647,0.000186,53.2174,226.5551,38.9559,249.9137,-0.049084,-0.00846182,0.0,0 STARLINK-4019,1 52598U 22052A   22179.25001157 -.00846182  00000-0 -49084-1 0  9999,2 52598  53.2174 226.5551 0001860  38.9559 249.9137 15.14268647  7289,6901.337,95.095,524.485,521.918,0.0
52598.0,STARLINK-4019,PAYLOAD,2022-06-28 14:00:01,15.13670154,0.0001754,53.2173,225.045,40.1376,266.4889,-0.049697,-0.00842604,0.0,0 STARLINK-4019,1 52598U 22052A   22179.58334491 -.00842604  00000-0 -49697-1 0  9990,2 52598  53.2173 225.0450 0001754  40.1376 266.4889 15.13670154  1308,6903.156,95.133,526.232,523.81,0.0
52598.0,STARLINK-4019,PAYLOAD,2022-06-28 22:00:00,15.13074405,0.0001788,53.2175,223.5331,35.8122,287.8557,-0.05071,-0.00845265,0.0,0 STARLINK-4019,1 52598U 22052A   22179.91667824 -.00845265  00000-0 -50710-1 0  9990,2 52598  53.2175 223.5331 0001788  35.8122 287.8557 15.13074405  1304,6904.968000000003,95.17,528.067,525.5980000000002,0.0
52598.0,STARLINK-4019,PAYLOAD,2022-06-29 14:00:01,15.11880192,0.0001822,53.2173,220.5189,35.6881,319.9603,-0.052311,-0.00843352,0.0,0 STARLINK-4019,1 52598U 22052A   22180.58334491 -.00843352  00000-0 -52311-1 0  9990,2 52598  53.2173 220.5189 0001822  35.6881 319.9603 15.11880192  7489,6908.603,95.246,531.727,529.21,0.0
52598.0,STARLINK-4019,PAYLOAD,2022-06-29 22:00:00,15.11282982,0.0001635,53.2174,219.0112,41.2392,329.2998,-0.053222,-0.00843788,0.0,0 STARLINK-4019,1 52598U 22052A   22180.91667824 -.00843788  00000-0 -53222-1 0  9991,2 52598  53.2174 219.0112 0001635  41.2392 329.2998 15.11282982  1300,6910.4230000000025,95.283,533.418,531.158,0.0
52598.0,STARLINK-4019,PAYLOAD,2022-06-30 14:00:01,15.100903400000002,0.0001593,53.2172,216.0055,43.364,354.7997,-0.055052,-0.00844298,0.0,0 STARLINK-4019,1 52598U 22052A   22181.58334491 -.00844298  00000-0 -55052-1 0  9996,2 52598  53.2172 216.0055 0001593  43.3640 354.7997 15.10090340  1309,6914.061,95.359,537.028,534.825,0.0
52598.0,STARLINK-4019,PAYLOAD,2022-06-30 22:00:00,15.09401747,0.0001479,53.2174,214.503,43.2003,7.7183,-0.038022,-0.00574535,0.0,0 STARLINK-4019,1 52598U 22052A   22181.91667824 -.00574535  00000-0 -38022-1 0  9994,2 52598  53.2174 214.5030 0001479  43.2003   7.7183 15.09401747  1309,6916.1640000000025,95.402,539.052,537.006,0.0
52598.0,STARLINK-4019,PAYLOAD,2022-07-01 06:00:00,15.08902179,0.0001561,53.2176,213.0058,44.9817,17.9707,-0.0066145,-0.00104215,0.0,0 STARLINK-4019,1 52598U 22052A   22182.25001157 -.00104215  00000-0 -66145-2 0  9995,2 52598  53.2176 213.0058 0001561  44.9817  17.9707 15.08902179  7730,6917.69,95.434,540.635,538.475,0.0
52598.0,STARLINK-4019,PAYLOAD,2022-07-01 14:00:01,15.08857198,0.0001905,53.2148,211.5152,47.8507,26.6224,0.0064483,0.00103903,0.0,0 STARLINK-4019,1 52598U 22052A   22182.58334491  .00103903  00000-0  64483-2 0  9995,2 52598  53.2148 211.5152 0001905  47.8507  26.6224 15.08857198  1305,6917.828,95.436,541.011,538.375,0.0
52598.0,STARLINK-4019,PAYLOAD,2022-07-01 22:00:00,15.0881603,0.0001855,53.2116,210.0236,51.3405,34.739000000000004,0.00241,0.00038251,0.0,0 STARLINK-4019,1 52598U 22052A   22182.91667824  .00038251  00000-0  24100-2 0  9996,2 52598  53.2116 210.0236 0001855  51.3405  34.7390 15.08816030  7836,6917.954000000002,95.439,541.102,538.535,0.0
52598.0,STARLINK-4019,PAYLOAD,2022-07-02 14:00:01,15.08831373,0.0002059,53.2112,207.0322,46.3031,62.9531,0.0011472,0.00018013,0.0,0 STARLINK-4019,1 52598U 22052A   22183.58334491  .00018013  00000-0  11472-2 0  9993,2 52598  53.2112 207.0322 0002059  46.3031  62.9531 15.08831373  1303,6917.906999999997,95.438,541.196,538.347,0.0
52598.0,STARLINK-4019,PAYLOAD,2022-07-02 22:00:00,15.08820423,0.0001861,53.2114,205.5339,52.5532,68.3072,0.0024662,0.00039159,0.0,0 STARLINK-4019,1 52598U 22052A   22183.91667824  .00039159  00000-0  24662-2 0  9998,2 52598  53.2114 205.5339 0001861  52.5532  68.3072 15.08820423  1305,6917.94,95.439,541.0930000000002,538.518,0.0
52598.0,STARLINK-4019,PAYLOAD,2022-07-03 14:00:01,15.08840413,0.0002069,53.2111,202.5425,47.9698,96.0792,0.00056204,8.668e-05,0.0,0 STARLINK-4019,1 52598U 22052A   22184.58334491  .00008668  00000-0  56204-3 0  9992,2 52598  53.2111 202.5425 0002069  47.9698  96.0792 15.08840413  1305,6917.879,95.438,541.175,538.313,0.0
52598.0,STARLINK-4019,PAYLOAD,2022-07-03 22:00:00,15.08823186,0.00019,53.2112,201.0443,54.1677,101.4877,0.002291,0.00036345,0.0,0 STARLINK-4019,1 52598U 22052A   22184.91667824  .00036345  00000-0  22910-2 0  9997,2 52598  53.2112 201.0443 0001900  54.1677 101.4877 15.08823186  8131,6917.932,95.439,541.111,538.482,0.0
52598.0,STARLINK-4019,PAYLOAD,2022-07-04 14:00:01,15.08845631,0.0002104,53.2109,198.0528,49.4878,129.3573,-9.9877e-05,-1.878e-05,0.0,0 STARLINK-4019,1 52598U 22052A   22185.58334491 -.00001878  00000-0 -99877-4 0  9995,2 52598  53.2109 198.0528 0002104  49.4878 129.3573 15.08845631  1306,6917.863,95.437,541.184,538.273,0.0
52598.0,STARLINK-4019,PAYLOAD,2022-07-04 22:00:00,15.08826014,0.0001969,53.21100000000001,196.5546,55.2871,135.1682,0.0022656,0.0003594,0.0,0 STARLINK-4019,1 52598U 22052A   22185.91667824  .00035940  00000-0  22656-2 0  9995,2 52598  53.2110 196.5546 0001969  55.2871 135.1682 15.08826014  1307,6917.9230000000025,95.438,541.15,538.4259999999998,0.0
52598.0,STARLINK-4019,PAYLOAD,2022-07-05 14:00:01,15.08854248,0.0002165,53.21100000000001,193.5631,50.3692,163.2822,-0.00066827,-0.00010913,0.0,0 STARLINK-4019,1 52598U 22052A   22186.58334491 -.00010913  00000-0 -66827-3 0  9994,2 52598  53.2110 193.5631 0002165  50.3692 163.2822 15.08854248  1303,6917.837,95.437,541.2,538.2040000000002,0.0
52598.0,STARLINK-4019,PAYLOAD,2022-07-05 22:00:00,15.08830474,0.0002059,53.2112,192.0649,55.8447,169.4218,0.0023204,0.00036825,0.0,0 STARLINK-4019,1 52598U 22052A   22186.91667824  .00036825  00000-0  23204-2 0  9999,2 52598  53.2112 192.0649 0002059  55.8447 169.4218 15.08830474  8442,6917.91,95.438,541.1990000000002,538.35,0.0
52598.0,STARLINK-4019,PAYLOAD,2022-07-06 14:00:01,15.0886263,0.0002248,53.2113,189.0734,51.1304,197.3393,-0.0012350999999999,-0.00019904,0.0,0 STARLINK-4019,1 52598U 22052A   22187.58334491 -.00019904  00000-0 -12351-2 0  9996,2 52598  53.2113 189.0734 0002248  51.1304 197.3393 15.08862630  1306,6917.811,95.436,541.231,538.121,0.0
52598.0,STARLINK-4019,PAYLOAD,2022-07-06 16:00:00,15.08869429,0.0002214,53.2115,188.6987,52.1226,289.2489,-0.0024178,-0.00038594,0.0,0 STARLINK-4019,1 52598U 22052A   22187.66667824 -.00038594  00000-0 -24178-2 0  9990,2 52598  53.2115 188.6987 0002214  52.1226 289.2489 15.08869429  8554,6917.79,95.436,541.187,538.124,0.0
52598.0,STARLINK-4019,PAYLOAD,2022-07-06 22:00:00,15.0884231,0.0002133,53.2115,187.5752,56.2566,203.8316,0.0009558,0.00014957,0.0,0 STARLINK-4019,1 52598U 22052A   22187.91667824  .00014957  00000-0  95580-3 0  9999,2 52598  53.2115 187.5752 0002133  56.2566 203.8316 15.08842310  1301,6917.873000000001,95.437,541.214,538.263,0.0
52598.0,STARLINK-4019,PAYLOAD,2022-07-07 04:48:03,15.08852549,0.0002157,53.2127,186.3036,55.6571,304.4625,4.3616e-05,4.06e-06,0.0,0 STARLINK-4019,1 52598U 22052A   22188.20003800  .00000406  00000-0  43616-4 0  9998,2 52598  53.2127 186.3036 0002157  55.6571 304.4625 15.08852549  8630,6917.842,95.437,541.1990000000002,538.215,0.0
52598.0,STARLINK-4019,PAYLOAD,2022-07-07 14:00:01,15.08845161,0.0002239,53.2117,184.5837,50.2206,233.0611,-0.0016827,-0.00026973,0.0,0 STARLINK-4019,1 52598U 22052A   22188.58334491 -.00026973  00000-0 -16827-2 0  9993,2 52598  53.2117 184.5837 0002239  50.2206 233.0611 15.08845161  8695,6917.865,95.437,541.279,538.181,0.0
52598.0,STARLINK-4019,PAYLOAD,2022-07-07 22:00:00,15.08815253,0.0002155,53.2119,183.0857,55.9531,238.9239,0.0023984,0.00038064,0.0,0 STARLINK-4019,1 52598U 22052A   22188.91667824  .00038064  00000-0  23984-2 0  9993,2 52598  53.2119 183.0857 0002155  55.9531 238.9239 15.08815253  1303,6917.956,95.439,541.312,538.33,0.0
52598.0,STARLINK-4019,PAYLOAD,2022-07-08 04:38:50,15.08840664,0.0002158,53.2129,181.8431,55.8523,304.2674,-6.0056e-05,-1.244e-05,0.0,0 STARLINK-4019,1 52598U 22052A   22189.19364552 -.00001244  00000-0 -60056-4 0  9991,2 52598  53.2129 181.8431 0002158  55.8523 304.2674 15.08840664  8784,6917.878000000002,95.438,541.236,538.25,0.0
52598.0,STARLINK-4019,PAYLOAD,2022-07-08 14:00:01,15.08861309,0.0002289,53.2118,180.09400000000005,51.9523,266.1019,-0.0017411999999999,-0.0002791,0.0,0 STARLINK-4019,1 52598U 22052A   22189.58334491 -.00027910  00000-0 -17412-2 0  9997,2 52598  53.2118 180.0940 0002289  51.9523 266.1019 15.08861309  1309,6917.815,95.436,541.264,538.097,0.0
52598.0,STARLINK-4019,PAYLOAD,2022-07-08 22:00:01,15.08833978,0.0002177,53.2121,178.5961,57.7156,272.0132,0.0024191,0.00038416,0.0,0 STARLINK-4019,1 52598U 22052A   22189.91668981  .00038416  00000-0  24191-2 0  9991,2 52598  53.2121 178.5961 0002177  57.7156 272.0132 15.08833978  1303,6917.899,95.438,541.27,538.258,0.0
52598.0,STARLINK-4019,PAYLOAD,2022-07-09 06:00:00,15.08826656,0.0002264,53.2119,177.1014,52.271,288.9835,-0.00069222,-0.00011284,0.0,0 STARLINK-4019,1 52598U 22052A   22190.25001157 -.00011284  00000-0 -69222-3 0  9997,2 52598  53.2119 177.1014 0002264  52.2710 288.9835 15.08826656  8945,6917.920999999999,95.438,541.352,538.22,0.0
